[{"OBJECT_NAME":"STARLINK-1493","OBJECT_ID":"2020-038AF","EPOCH":"2026-03-09T23:10:29.667360","MEAN_MOTION":15.5030174,"ECCENTRICITY":0.00018687,"INCLINATION":53.0528,"RA_OF_ASC_NODE":203.177,"ARG_OF_PERICENTER":31.7512,"MEAN_ANOMALY":328.3608,"EPHEMERIS_TYPE":0,"CLASSIFICATION_TYPE":"U","NORAD_CAT_ID":45759,"ELEMENT_SET_NO":999,"REV_AT_EPOCH":31668,"BSTAR":0.0020428656,"MEAN_MOTION_DOT":0.00119034,"MEAN_MOTION_DDOT":0},{"OBJECT_NAME":"STARLINK-2001","OBJECT_ID":"2021-009BA","EPOCH":"2026-03-09T22:00:01.999584","MEAN_MOTION":15.51033089,"ECCENTRICITY":0.00052542,"INCLINATION":53.0495,"RA_OF_ASC_NODE":20.4797,"ARG_OF_PERICENTER":112.3362,"MEAN_ANOMALY":153.3998,"EPHEMERIS_TYPE":0,"CLASSIFICATION_TYPE":"U","NORAD_CAT_ID":47596,"ELEMENT_SET_NO":999,"REV_AT_EPOCH":554,"BSTAR":0.0019509967,"MEAN_MOTION_DOT":0.00116668,"MEAN_MOTION_DDOT":0}]
